{
  "links" : {
    "next" : "https://api.nasa.gov/neo/rest/v1/feed?start_date=2016-02-09&end_date=2016-02-09&detailed=true&api_key=t0TVs3DtDT2H8Oy2Zy8m2eVrNsAVKAexjcZXUckd",
    "prev" : "https://api.nasa.gov/neo/rest/v1/feed?start_date=2016-02-07&end_date=2016-02-07&detailed=true&api_key=t0TVs3DtDT2H8Oy2Zy8m2eVrNsAVKAexjcZXUckd",
    "self" : "https://api.nasa.gov/neo/rest/v1/feed?start_date=2016-02-08&end_date=2016-02-08&detailed=true&api_key=t0TVs3DtDT2H8Oy2Zy8m2eVrNsAVKAexjcZXUckd"
  },
  "element_count" : 13,
  "near_earth_objects" : {
    "2016-02-08" : [ {
      "links" : {
        "self" : "https://api.nasa.gov/neo/rest/v1/neo/3743901?api_key=t0TVs3DtDT2H8Oy2Zy8m2eVrNsAVKAexjcZXUckd"
      },
      "neo_reference_id" : "3743901",
      "name" : "(2016 CT246)",
      "nasa_jpl_url" : "http://ssd.jpl.nasa.gov/sbdb.cgi?sstr=3743901",
      "absolute_magnitude_h" : 22.9,
      "estimated_diameter" : {
        "kilometers" : {
          "estimated_diameter_min" : 0.0699125232,
          "estimated_diameter_max" : 0.1563291544
        },
        "meters" : {
          "estimated_diameter_min" : 69.9125232246,
          "estimated_diameter_max" : 156.3291544087
        },
        "miles" : {
          "estimated_diameter_min" : 0.0434416145,
          "estimated_diameter_max" : 0.097138403
        },
        "feet" : {
          "estimated_diameter_min" : 229.3718026961,
          "estimated_diameter_max" : 512.8909429502
        }
      },
      "is_potentially_hazardous_asteroid" : false,
      "close_approach_data" : [ {
        "close_approach_date" : "2016-02-08",
        "epoch_date_close_approach" : 1454918400000,
        "relative_velocity" : {
          "kilometers_per_second" : "19.7331182759",
          "kilometers_per_hour" : "71039.2257931316",
          "miles_per_hour" : "44141.0122712934"
        },
        "miss_distance" : {
          "astronomical" : "0.0790986222",
          "lunar" : "30.7693634033",
          "kilometers" : "11832985",
          "miles" : "7352676"
        },
        "orbiting_body" : "Earth"
      } ],
      "orbital_data" : {
        "orbit_id" : "6",
        "orbit_determination_date" : "2017-04-06 08:28:16",
        "orbit_uncertainty" : "8",
        "minimum_orbit_intersection" : ".0763353",
        "jupiter_tisserand_invariant" : "5.078",
        "epoch_osculation" : "2457431.5",
        "eccentricity" : ".1831215958178812",
        "semi_major_axis" : "1.203870671039201",
        "inclination" : "36.98492994453603",
        "ascending_node_longitude" : "319.6096554179592",
        "orbital_period" : "482.4676271775936",
        "perihelion_distance" : ".983415952600159",
        "perihelion_argument" : "120.3527229723642",
        "aphelion_distance" : "1.424325389478243",
        "perihelion_time" : "2457372.045010479491",
        "mean_anomaly" : "44.36317593492055",
        "mean_motion" : ".7461640527178542",
        "equinox" : "J2000"
      }
    }, {
      "links" : {
        "self" : "https://api.nasa.gov/neo/rest/v1/neo/3744695?api_key=t0TVs3DtDT2H8Oy2Zy8m2eVrNsAVKAexjcZXUckd"
      },
      "neo_reference_id" : "3744695",
      "name" : "(2016 DJ)",
      "nasa_jpl_url" : "http://ssd.jpl.nasa.gov/sbdb.cgi?sstr=3744695",
      "absolute_magnitude_h" : 25.6,
      "estimated_diameter" : {
        "kilometers" : {
          "estimated_diameter_min" : 0.0201629919,
          "estimated_diameter_max" : 0.0450858206
        },
        "meters" : {
          "estimated_diameter_min" : 20.1629919443,
          "estimated_diameter_max" : 45.0858206172
        },
        "miles" : {
          "estimated_diameter_min" : 0.0125286985,
          "estimated_diameter_max" : 0.0280150214
        },
        "feet" : {
          "estimated_diameter_min" : 66.1515504905,
          "estimated_diameter_max" : 147.9193637137
        }
      },
      "is_potentially_hazardous_asteroid" : false,
      "close_approach_data" : [ {
        "close_approach_date" : "2016-02-08",
        "epoch_date_close_approach" : 1454918400000,
        "relative_velocity" : {
          "kilometers_per_second" : "4.2501443488",
          "kilometers_per_hour" : "15300.5196555724",
          "miles_per_hour" : "9507.1478937639"
        },
        "miss_distance" : {
          "astronomical" : "0.0404585489",
          "lunar" : "15.7383756638",
          "kilometers" : "6052513",
          "miles" : "3760857"
        },
        "orbiting_body" : "Earth"
      } ],
      "orbital_data" : {
        "orbit_id" : "17",
        "orbit_determination_date" : "2017-04-06 08:28:07",
        "orbit_uncertainty" : "4",
        "minimum_orbit_intersection" : ".0274779",
        "jupiter_tisserand_invariant" : "5.957",
        "epoch_osculation" : "2458000.5",
        "eccentricity" : ".1610124497994929",
        "semi_major_axis" : "1.023512527200959",
        "inclination" : "4.347269983876299",
        "ascending_node_longitude" : "336.8440904800219",
        "orbital_period" : "378.2144963961139",
        "perihelion_distance" : ".8587142677958625",
        "perihelion_argument" : "70.89215709820563",
        "aphelion_distance" : "1.188310786606056",
        "perihelion_time" : "2458105.165387286138",
        "mean_anomaly" : "260.3752109397016",
        "mean_motion" : ".9518408295565769",
        "equinox" : "J2000"
      }
    }, {
      "links" : {
        "self" : "https://api.nasa.gov/neo/rest/v1/neo/3653602?api_key=t0TVs3DtDT2H8Oy2Zy8m2eVrNsAVKAexjcZXUckd"
      },
      "neo_reference_id" : "3653602",
      "name" : "(2013 VA10)",
      "nasa_jpl_url" : "http://ssd.jpl.nasa.gov/sbdb.cgi?sstr=3653602",
      "absolute_magnitude_h" : 22.2,
      "estimated_diameter" : {
        "kilometers" : {
          "estimated_diameter_min" : 0.096506147,
          "estimated_diameter_max" : 0.2157943048
        },
        "meters" : {
          "estimated_diameter_min" : 96.5061469579,
          "estimated_diameter_max" : 215.7943048444
        },
        "miles" : {
          "estimated_diameter_min" : 0.059966121,
          "estimated_diameter_max" : 0.134088323
        },
        "feet" : {
          "estimated_diameter_min" : 316.6212271853,
          "estimated_diameter_max" : 707.9865871058
        }
      },
      "is_potentially_hazardous_asteroid" : false,
      "close_approach_data" : [ {
        "close_approach_date" : "2016-02-08",
        "epoch_date_close_approach" : 1454918400000,
        "relative_velocity" : {
          "kilometers_per_second" : "25.5234231564",
          "kilometers_per_hour" : "91884.3233631966",
          "miles_per_hour" : "57093.3452586485"
        },
        "miss_distance" : {
          "astronomical" : "0.0321872033",
          "lunar" : "12.520822525",
          "kilometers" : "4815137.5",
          "miles" : "2991987.75"
        },
        "orbiting_body" : "Earth"
      } ],
      "orbital_data" : {
        "orbit_id" : "21",
        "orbit_determination_date" : "2017-04-06 08:43:46",
        "orbit_uncertainty" : "1",
        "minimum_orbit_intersection" : ".00953797",
        "jupiter_tisserand_invariant" : "5.063",
        "epoch_osculation" : "2458000.5",
        "eccentricity" : ".7663361225492961",
        "semi_major_axis" : "1.168268987509165",
        "inclination" : "1.029827816053946",
        "ascending_node_longitude" : "104.9518748726351",
        "orbital_period" : "461.2248509421125",
        "perihelion_distance" : ".2729822615267996",
        "perihelion_argument" : "164.3305039231781",
        "aphelion_distance" : "2.063555713491531",
        "perihelion_time" : "2457934.036909466335",
        "mean_anomaly" : "51.87646013272236",
        "mean_motion" : ".7805303622834993",
        "equinox" : "J2000"
      }
    } ]
  }
}